GLOBALSTAR M023         
1 25621U 99004A   26013.61897293 -.00000038  00000+0  36457-3 0  9994
2 25621  52.0100 132.6654 0009454 228.5775 145.2232 12.62513623242313
GLOBALSTAR M040         
1 25622U 99004B   26013.59627587 -.00000125  00000+0 -11646-3 0  9990
2 25622  51.9916 137.1984 0001821 122.1713 250.8293 12.62026801241826
GLOBALSTAR M036         
1 25623U 99004C   26013.82585958 -.00000075  00000+0  12060-3 0  9996
2 25623  51.9982  45.1120 0010831  95.2597  76.3465 11.86616497203989
GLOBALSTAR M038         
1 25624U 99004D   26013.96956657 -.00000059  00000+0  30069-3 0  9991
2 25624  51.9947 184.5354 0002847 117.7992  56.4385 12.32539211228364
GLOBALSTAR M022         
1 25649U 99012A   26013.44465000 -.00000113  00000+0 -31073-3 0  9995
2 25649  52.0045  79.3206 0002701 213.9231 159.2917 12.02508672201675
GLOBALSTAR M041         
1 25650U 99012B   26013.87225960 -.00000051  00000+0  44578-3 0  9997
2 25650  52.0046 326.0340 0001638  28.2748 331.8178 11.96682652203501
GLOBALSTAR M046         
1 25651U 99012C   26014.00062566 -.00000041  00000+0  52360-3 0  9992
2 25651  52.0082  20.2486 0001785 317.7655  58.5886 12.09418510209175
GLOBALSTAR M037         
1 25652U 99012D   26013.40398542 -.00000095  00000+0  46442-4 0  9996
2 25652  51.9996 263.8625 0001499 320.2446 211.4553 12.62459110237821
